[{"OBJECT_NAME":"STARLINK-6137","OBJECT_ID":"2023-090BH","EPOCH":"2026-03-09T12:55:09.307488","MEAN_MOTION":15.02536705,"ECCENTRICITY":0.00013314,"INCLINATION":43.0039,"RA_OF_ASC_NODE":262.1869,"ARG_OF_PERICENTER":264.971,"MEAN_ANOMALY":95.098,"EPHEMERIS_TYPE":0,"CLASSIFICATION_TYPE":"U","NORAD_CAT_ID":57156,"ELEMENT_SET_NO":999,"REV_AT_EPOCH":15054,"BSTAR":2.8263771e-5,"MEAN_MOTION_DOT":1.78e-6,"MEAN_MOTION_DDOT":0},{"OBJECT_NAME":"CZ-6A DEB","OBJECT_ID":"2024-140FM","EPOCH":"2026-03-09T15:58:48.665856","MEAN_MOTION":15.24907574,"ECCENTRICITY":0.01008734,"INCLINATION":89.2247,"RA_OF_ASC_NODE":296.4931,"ARG_OF_PERICENTER":41.247,"MEAN_ANOMALY":319.6342,"EPHEMERIS_TYPE":0,"CLASSIFICATION_TYPE":"U","NORAD_CAT_ID":60786,"ELEMENT_SET_NO":999,"REV_AT_EPOCH":8558,"BSTAR":0.0022097808,"MEAN_MOTION_DOT":0.0006402,"MEAN_MOTION_DDOT":0}]
